[{"OBJECT_NAME":"STARLINK-3318","OBJECT_ID":"2022-001AL","EPOCH":"2026-03-09T14:23:33.128736","MEAN_MOTION":15.08837396,"ECCENTRICITY":0.0001495,"INCLINATION":53.2175,"RA_OF_ASC_NODE":169.5248,"ARG_OF_PERICENTER":90.9297,"MEAN_ANOMALY":269.1866,"EPHEMERIS_TYPE":0,"CLASSIFICATION_TYPE":"U","NORAD_CAT_ID":50837,"ELEMENT_SET_NO":999,"REV_AT_EPOCH":23039,"BSTAR":-1.6592e-5,"MEAN_MOTION_DOT":-5.52e-6,"MEAN_MOTION_DDOT":0},{"OBJECT_NAME":"PEGASUS DEB","OBJECT_ID":"1994-029AET","EPOCH":"2026-03-08T20:58:13.181952","MEAN_MOTION":14.33766801,"ECCENTRICITY":0.03416791,"INCLINATION":81.9646,"RA_OF_ASC_NODE":115.4043,"ARG_OF_PERICENTER":327.5056,"MEAN_ANOMALY":30.5491,"EPHEMERIS_TYPE":0,"CLASSIFICATION_TYPE":"U","NORAD_CAT_ID":39308,"ELEMENT_SET_NO":999,"REV_AT_EPOCH":66634,"BSTAR":0.0017314365,"MEAN_MOTION_DOT":9.329e-5,"MEAN_MOTION_DDOT":0}]
